*******************************************************************************
JPL/HORIZONS                1631 Kopff (1936 UC)           2023-Mar-05 11:00:25
Rec #:    1631 (+COV) Soln.date: 2022-Nov-25_02:49:50   # obs: 3566 (1926-2022)
 
IAU76/J2000 helio. ecliptic osc. elements (au, days, deg., period=Julian yrs):
 
  EPOCH=  2457397.5 ! 2016-Jan-10.00 (TDB)         Residual RMS= .25578
   EC= .2136481251705249   QR= 1.757486483465413   TP= 2457637.2715386697
   OM= 16.8295475496813    W=  315.1598835421324   IN= 7.494462929965115
   A= 2.234987338011414    MA= 289.2723703324313   ADIST= 2.712488192557414
   PER= 3.34134            N= .294979254           ANGMOM= .025123135
   DAN= 1.85235            DDN= 2.51379            L= 332.2351951
   B= -5.2769778           MOID= .755108           TP= 2016-Sep-05.7715386697
 
Asteroid physical parameters (km, seconds, rotational period in hours):
   GM= n.a.                RAD= 4.318              ROTPER= 6.683
   H= 12.23                G= .150                 B-V= n.a.
                           ALBEDO= .342            STYP= n.a.
 
ASTEROID comments: 
1: soln ref.= JPL#55, OCC=0
2: source=ORB
*******************************************************************************


*******************************************************************************
Ephemeris / WWW_USER Sun Mar  5 11:00:26 2023 Pasadena, USA      / Horizons
*******************************************************************************
Target body name: 1631 Kopff (1936 UC)            {source: JPL#55}
Center body name: Sun (10)                        {source: DE441}
Center-site name: (user defined site below)
*******************************************************************************
Start time      : A.D. 2011-Oct-10 00:00:00.0000 TDB
Stop  time      : A.D. 2023-Mar-04 00:00:00.0000 TDB
Step-size       : 14400 minutes
*******************************************************************************
Center geodetic : 0.0, 0.0, 0.0                   {E-lon(deg),Lat(deg),Alt(km)}
Center cylindric: 0.0, 6.96E5, 0.0                {E-lon(deg),Dxy(km),Dz(km)}
Center pole/equ : IAU_SUN                         {East-longitude positive}
Center radii    : 696000.0, 696000.0, 696000.0 km {Equator_a, b, pole_c}
Small perturbers: Yes                             {source: SB441-N16}
Output units    : KM-S
Calendar mode   : Mixed Julian/Gregorian
Output type     : GEOMETRIC cartesian states
Output format   : 1 (position only)
Reference frame : Ecliptic of J2000.0
*******************************************************************************
Initial IAU76/J2000 heliocentric ecliptic osculating elements (au, days, deg.):
  EPOCH=  2457397.5 ! 2016-Jan-10.00 (TDB)         Residual RMS= .25578        
   EC= .2136481251705249   QR= 1.757486483465413   TP= 2457637.2715386697      
   OM= 16.8295475496813    W=  315.1598835421324   IN= 7.494462929965115       
  Equivalent ICRF heliocentric cartesian coordinates (au, au/d):
   X=-1.197719654739488E+00  Y=-1.585771703892056E+00  Z=-8.858343851509729E-01
  VX= 1.100936237915450E-02 VY=-3.462552224408002E-03 VZ=-2.532502376435505E-03
Asteroid physical parameters (km, seconds, rotational period in hours):        
   GM= n.a.                RAD= 4.318              ROTPER= 6.683               
   H= 12.23                G= .150                 B-V= n.a.                   
                           ALBEDO= .342            STYP= n.a.                  
*******************************************************************************
            JDTDB,            Calendar Date (TDB),                      X,                      Y,                      Z,
**************************************************************************************************************************
$$SOE
2458344.500000000, A.D. 2018-Aug-14 00:00:00.0000, -3.948222712948453E+08,  5.965686437518324E+07,  2.263005239544813E+07,
2458354.500000000, A.D. 2018-Aug-24 00:00:00.0000, -3.945929933805031E+08,  4.659218612942286E+07,  2.080897214238098E+07,
2458364.500000000, A.D. 2018-Sep-03 00:00:00.0000, -3.959357484908591E+08,  3.230272916182167E+07,  1.918938425137629E+07,
2458374.500000000, A.D. 2018-Sep-13 00:00:00.0000, -3.942282257039502E+08,  1.750797210441361E+07,  1.722629965877585E+07,
2458384.500000000, A.D. 2018-Sep-23 00:00:00.0000, -3.935105445904123E+08,  4.551204561724927E+06,  1.549398417597980E+07,
2458394.500000000, A.D. 2018-Oct-03 00:00:00.0000, -3.920281701968168E+08, -1.089344157856904E+07,  1.364335040176328E+07,
2458404.500000000, A.D. 2018-Oct-13 00:00:00.0000, -3.884783802129821E+08, -2.428526913591859E+07,  1.165848279300421E+07,
2458414.500000000, A.D. 2018-Oct-23 00:00:00.0000, -3.866438617625128E+08, -3.835636389718971E+07,  9.923177013092754E+06,
2458424.500000000, A.D. 2018-Nov-02 00:00:00.0000, -3.818592706753985E+08, -5.326540470026595E+07,  7.859794252850907E+06,
2458434.500000000, A.D. 2018-Nov-12 00:00:00.0000, -3.776613158120224E+08, -6.594289257194855E+07,  6.003370843064506E+06,
2458444.500000000, A.D. 2018-Nov-22 00:00:00.0000, -3.731373879011098E+08, -8.096691137898719E+07,  4.100914798027404E+06,
2458454.500000000, A.D. 2018-Dec-02 00:00:00.0000, -3.661720032175764E+08, -9.411382798337203E+07,  2.026489787390199E+06,
2458464.500000000, A.D. 2018-Dec-12 00:00:00.0000, -3.609928159205614E+08, -1.073515701963125E+08,  2.428281457380429E+05,
2458474.500000000, A.D. 2018-Dec-22 00:00:00.0000, -3.530570769535264E+08, -1.217093731991338E+08, -1.839684052750044E+06,
2458484.500000000, A.D. 2019-Jan-01 00:00:00.0000, -3.452744118841630E+08, -1.334978177454893E+08, -3.743823834317118E+06,
2458494.500000000, A.D. 2019-Jan-11 00:00:00.0000, -3.376077108192757E+08, -1.473835374622988E+08, -5.617245576669492E+06,
2458504.500000000, A.D. 2019-Jan-21 00:00:00.0000, -3.272049850640778E+08, -1.596069258258407E+08, -7.691136151429676E+06,
2458514.500000000, A.D. 2019-Jan-31 00:00:00.0000, -3.185914858546835E+08, -1.713001784339609E+08, -9.439821543570459E+06,
2458524.500000000, A.D. 2019-Feb-10 00:00:00.0000, -3.075095008124252E+08, -1.843246599945939E+08, -1.144373463905426E+07,
2458534.500000000, A.D. 2019-Feb-20 00:00:00.0000, -2.961412615822409E+08, -1.944991704977997E+08, -1.329995573975764E+07,
2458544.500000000, A.D. 2019-Mar-02 00:00:00.0000, -2.853291579336309E+08, -2.064121487864806E+08, -1.504523016212524E+07,
2458554.500000000, A.D. 2019-Mar-12 00:00:00.0000, -2.715883772846853E+08, -2.168987373416713E+08, -1.700747153956540E+07,
2458564.500000000, A.D. 2019-Mar-22 00:00:00.0000, -2.595854320941639E+08, -2.262135568749246E+08, -1.861625179407851E+07,
2458574.500000000, A.D. 2019-Apr-01 00:00:00.0000, -2.455016997203804E+08, -2.369826531891894E+08, -2.042197205239192E+07,
2458584.500000000, A.D. 2019-Apr-11 00:00:00.0000, -2.307191976596256E+08, -2.446790497424915E+08, -2.210987914576031E+07,
2458594.500000000, A.D. 2019-Apr-21 00:00:00.0000, -2.169347350603240E+08, -2.536497086926084E+08, -2.360416727524550E+07,
2458604.500000000, A.D. 2019-May-01 00:00:00.0000, -2.001587991842549E+08, -2.614352039865987E+08, -2.531757868086237E+07,
2458614.500000000, A.D. 2019-May-11 00:00:00.0000, -1.850400662357185E+08, -2.674029687643023E+08, -2.665477136178243E+07,
2458624.500000000, A.D. 2019-May-21 00:00:00.0000, -1.683398729913784E+08, -2.748508901166856E+08, -2.811643706232044E+07,
2458634.500000000, A.D. 2019-May-31 00:00:00.0000, -1.505978262953888E+08, -2.790664123001862E+08, -2.948690119430806E+07,
2458644.500000000, A.D. 2019-Jun-10 00:00:00.0000, -1.343123224426459E+08, -2.840026969490969E+08, -3.058035430952008E+07,
2458654.500000000, A.D. 2019-Jun-20 00:00:00.0000, -1.151374640964857E+08, -2.879944606345915E+08, -3.187975678131534E+07,
2458664.500000000, A.D. 2019-Jun-30 00:00:00.0000, -9.754792780953686E+07, -2.895471284705408E+08, -3.278592668739383E+07,
2458674.500000000, A.D. 2019-Jul-10 00:00:00.0000, -7.900755164022079E+07, -2.925179836324986E+08, -3.373236245854430E+07,
2458684.500000000, A.D. 2019-Jul-20 00:00:00.0000, -5.920293381885260E+07, -2.921804286290065E+08, -3.461041785526663E+07,
2458694.500000000, A.D. 2019-Jul-30 00:00:00.0000, -4.135438518480641E+07, -2.919609332929897E+08, -3.513135158685322E+07,
2458704.500000000, A.D. 2019-Aug-09 00:00:00.0000, -2.092136570225079E+07, -2.910553441108313E+08, -3.583201376743409E+07,
2458714.500000000, A.D. 2019-Aug-19 00:00:00.0000, -2.054573506995738E+06, -2.871697429580759E+08, -3.613147754352665E+07,
2458724.500000000, A.D. 2019-Aug-29 00:00:00.0000,  1.698288503481946E+07, -2.845963921127118E+08, -3.638194907394369E+07,
2458734.500000000, A.D. 2019-Sep-08 00:00:00.0000,  3.734016210680418E+07, -2.787750723820699E+08, -3.658712202745438E+07,
2458744.500000000, A.D. 2019-Sep-18 00:00:00.0000,  5.518395412352545E+07, -2.725000926496025E+08, -3.636728206533626E+07,
2458754.500000000, A.D. 2019-Sep-28 00:00:00.0000,  7.508635417534100E+07, -2.658740798287097E+08, -3.629628718531318E+07,
2458764.500000000, A.D. 2019-Oct-08 00:00:00.0000,  9.336670099839027E+07, -2.559036311564923E+08, -3.583433053623241E+07,
2458774.500000000, A.D. 2019-Oct-18 00:00:00.0000,  1.109037601396008E+08, -2.471847226483428E+08, -3.524253268380409E+07,
2458784.500000000, A.D. 2019-Oct-28 00:00:00.0000,  1.296476848447982E+08, -2.355056121082322E+08, -3.463967674342810E+07,
2458794.500000000, A.D. 2019-Nov-07 00:00:00.0000,  1.452970887980639E+08, -2.229513069906150E+08, -3.357154419201669E+07,
2458804.500000000, A.D. 2019-Nov-17 00:00:00.0000,  1.623079889156470E+08, -2.105486888815789E+08, -3.263192200081266E+07,
2458814.500000000, A.D. 2019-Nov-27 00:00:00.0000,  1.776177206546470E+08, -1.947303838271028E+08, -3.134435994020697E+07,
2458824.500000000, A.D. 2019-Dec-07 00:00:00.0000,  1.912382559211766E+08, -1.802515420833105E+08, -2.987275005021383E+07,
2458834.500000000, A.D. 2019-Dec-17 00:00:00.0000,  2.058783164779448E+08, -1.634120363768485E+08, -2.844959885594281E+07,
